[{"OBJECT_NAME":"STARLINK-1954","OBJECT_ID":"2021-009H","EPOCH":"2026-03-09T23:20:25.352160","MEAN_MOTION":15.30849174,"ECCENTRICITY":0.00046184,"INCLINATION":53.0574,"RA_OF_ASC_NODE":8.8654,"ARG_OF_PERICENTER":103.3293,"MEAN_ANOMALY":256.8222,"EPHEMERIS_TYPE":0,"CLASSIFICATION_TYPE":"U","NORAD_CAT_ID":47555,"ELEMENT_SET_NO":999,"REV_AT_EPOCH":28100,"BSTAR":0.0022371791,"MEAN_MOTION_DOT":0.00067883,"MEAN_MOTION_DDOT":0},{"OBJECT_NAME":"STARLINK-30283","OBJECT_ID":"2023-124T","EPOCH":"2026-03-09T16:19:23.853216","MEAN_MOTION":15.30196514,"ECCENTRICITY":0.00013447,"INCLINATION":53.1595,"RA_OF_ASC_NODE":207.0334,"ARG_OF_PERICENTER":88.9333,"MEAN_ANOMALY":271.1822,"EPHEMERIS_TYPE":0,"CLASSIFICATION_TYPE":"U","NORAD_CAT_ID":57680,"ELEMENT_SET_NO":999,"REV_AT_EPOCH":14356,"BSTAR":7.0780268e-5,"MEAN_MOTION_DOT":1.737e-5,"MEAN_MOTION_DDOT":0}]
